CTC1_L_00585007-03
1 60715U 23526N   26037.47809028  .00000000  00000+0  00000-0 0  9992
2 60715  65.0000 180.0000 0000000   0.0000 144.0000  6.70625782    14
CTC1_L_00585007-04
1 60716U 26373RA  26037.47809028  .00000000  00000+0  00000-0 0  9996
2 60716  65.0000 180.0000 0000000   0.0000 180.0000  6.70625782    15
CTC1_L_00585007-05
1 60717U 23368EQ  26037.47809028  .00000000  00000+0  00000-0 0  9998
2 60717  65.0000 180.0000 0000000   0.0000 216.0000  6.70625782    16
CTC1_L_00585007-06
1 60718U 25682MT  26037.47809028  .00000000  00000+0  00000-0 0  9990
2 60718  65.0000 180.0000 0000000   0.0000 252.0000  6.70625782    17
CTC1_L_00585007-07
1 60719U 24945TK  26037.47809028  .00000000  00000+0  00000-0 0  9992
2 60719  65.0000 180.0000 0000000   0.0000 288.0000  6.70625782    17
CTC1_L_00585007-08
1 60720U 22900JR  26037.47809028  .00000000  00000+0  00000-0 0  9993
2 60720  65.0000 180.0000 0000000   0.0000 324.0000  6.70625782    10
CTC1_L_00585007-09
1 60721U 23749GN  26037.47809028  .00000000  00000+0  00000-0 0  9996
2 60721  65.0000 180.0000 0000000   0.0000   0.0000  6.70625782    12
CTC1_L_00585007-10
1 60722U 25759OI  26037.47809028  .00000000  00000+0  00000-0 0  9990
2 60722  65.0000 180.0000 0000000   0.0000  36.0000  6.70625782    12
CTC1_L_00585008-01
1 60723U 22922WA  26037.47809028  .00000000  00000+0  00000-0 0  9990
2 60723  65.0000 210.0000 0000000   0.0000  84.0000  6.70625782    10
CTC1_L_00585008-02
1 60724U 25320CT  26037.47809028  .00000000  00000+0  00000-0 0  9996
2 60724  65.0000 210.0000 0000000   0.0000 120.0000  6.70625782    12
CTC1_L_00585008-03
1 60725U 23443TJ  26037.47809028  .00000000  00000+0  00000-0 0  9991
2 60725  65.0000 210.0000 0000000   0.0000 156.0000  6.70625782    12
CTC1_L_00585008-04
1 60726U 23340FS  26037.47809028  .00000000  00000+0  00000-0 0  9998
2 60726  65.0000 210.0000 0000000   0.0000 192.0000  6.70625782    13
CTC1_L_00585008-05
1 60727U 26989NM  26037.47809028  .00000000  00000+0  00000-0 0  9991
2 60727  65.0000 210.0000 0000000   0.0000 228.0000  6.70625782    14
CTC1_L_00585008-06
1 60728U 24634HB  26037.47809028  .00000000  00000+0  00000-0 0  9997
2 60728  65.0000 210.0000 0000000   0.0000 264.0000  6.70625782    15
CTC1_L_00585008-07
1 60729U 26591CH  26037.47809028  .00000000  00000+0  00000-0 0  9992
2 60729  65.0000 210.0000 0000000   0.0000 300.0000  6.70625782    17
CTC1_L_00585008-08
1 60730U 24752ZI  26037.47809028  .00000000  00000+0  00000-0 0  9991
2 60730  65.0000 210.0000 0000000   0.0000 336.0000  6.70625782    18
CTC1_L_00585008-09
1 60731U 26817ZT  26037.47809028  .00000000  00000+0  00000-0 0  9996
2 60731  65.0000 210.0000 0000000   0.0000  12.0000  6.70625782    10
CTC1_L_00585008-10
1 60732U 26196HQ  26037.47809028  .00000000  00000+0  00000-0 0  9997
2 60732  65.0000 210.0000 0000000   0.0000  48.0000  6.70625782    10
CTC1_L_00585009-01
1 60733U 22800ER  26037.47809028  .00000000  00000+0  00000-0 0  9996
2 60733  65.0000 240.0000 0000000   0.0000  96.0000  6.70625782    17
CTC1_L_00585009-02
1 60734U 24801M   26037.47809028  .00000000  00000+0  00000-0 0  9990
2 60734  65.0000 240.0000 0000000   0.0000 132.0000  6.70625782    19
CTC1_L_00585009-03
1 60735U 25329CP  26037.47809028  .00000000  00000+0  00000-0 0  9997
2 60735  65.0000 240.0000 0000000   0.0000 168.0000  6.70625782    19
CTC1_L_00585009-04
1 60736U 23350LD  26037.47809028  .00000000  00000+0  00000-0 0  9990
2 60736  65.0000 240.0000 0000000   0.0000 204.0000  6.70625782    11
CTC1_L_00585009-05
1 60737U 24638SZ  26037.47809028  .00000000  00000+0  00000-0 0  9991
2 60737  65.0000 240.0000 0000000   0.0000 240.0000  6.70625782    12
CTC1_L_00585009-06
1 60738U 25447WM  26037.47809028  .00000000  00000+0  00000-0 0  9991
2 60738  65.0000 240.0000 0000000   0.0000 276.0000  6.70625782    12
CTC1_L_00585009-07
1 60739U 22263CF  26037.47809028  .00000000  00000+0  00000-0 0  9995
2 60739  65.0000 240.0000 0000000   0.0000 312.0000  6.70625782    14
CTC1_L_00585009-08
1 60740U 25105YA  26037.47809028  .00000000  00000+0  00000-0 0  9995
2 60740  65.0000 240.0000 0000000   0.0000 348.0000  6.70625782    15
CTC1_L_00585009-09
1 60741U 23242LI  26037.47809028  .00000000  00000+0  00000-0 0  9996
2 60741  65.0000 240.0000 0000000   0.0000  24.0000  6.70625782    17
CTC1_L_00585009-10
1 60742U 24346WR  26037.47809028  .00000000  00000+0  00000-0 0  9993
2 60742  65.0000 240.0000 0000000   0.0000  60.0000  6.70625782    18
CTC1_L_00585010-01
1 60743U 22484ZL  26037.47809028  .00000000  00000+0  00000-0 0  9995
2 60743  65.0000 270.0000 0000000   0.0000 108.0000  6.70625782    15
CTC1_L_00585010-02
1 60744U 23851QF  26037.47809028  .00000000  00000+0  00000-0 0  9995
2 60744  65.0000 270.0000 0000000   0.0000 144.0000  6.70625782    16
CTC1_L_00585010-03
1 60745U 22776EV  26037.47809028  .00000000  00000+0  00000-0 0  9991
2 60745  65.0000 270.0000 0000000   0.0000 180.0000  6.70625782    17
CTC1_L_00585010-04
1 60746U 24170PX  26037.47809028  .00000000  00000+0  00000-0 0  9992
2 60746  65.0000 270.0000 0000000   0.0000 216.0000  6.70625782    18
CTC1_L_00585010-05
1 60747U 26871GI  26037.47809028  .00000000  00000+0  00000-0 0  9993
2 60747  65.0000 270.0000 0000000   0.0000 252.0000  6.70625782    19
CTC1_L_00585010-06
1 60748U 25201XX  26037.47809028  .00000000  00000+0  00000-0 0  9990
2 60748  65.0000 270.0000 0000000   0.0000 288.0000  6.70625782    19
CTC1_L_00585010-07
1 60749U 26427LL  26037.47809028  .00000000  00000+0  00000-0 0  9992
2 60749  65.0000 270.0000 0000000   0.0000 324.0000  6.70625782    11
CTC1_L_00585010-08
1 60750U 22701EW  26037.47809028  .00000000  00000+0  00000-0 0  9995
2 60750  65.0000 270.0000 0000000   0.0000   0.0000  6.70625782    14
CTC1_L_00585010-09
1 60751U 25213GN  26037.47809028  .00000000  00000+0  00000-0 0  9997
2 60751  65.0000 270.0000 0000000   0.0000  36.0000  6.70625782    14
CTC1_L_00585010-10
1 60752U 25155AL  26037.47809028  .00000000  00000+0  00000-0 0  9993
2 60752  65.0000 270.0000 0000000   0.0000  72.0000  6.70625782    15
CTC1_L_00585011-01
1 60753U 25922BV  26037.47809028  .00000000  00000+0  00000-0 0  9996
2 60753  65.0000 300.0000 0000000   0.0000 120.0000  6.70625782    14
CTC1_L_00585011-02
1 60754U 26855R   26037.47809028  .00000000  00000+0  00000-0 0  9993
2 60754  65.0000 300.0000 0000000   0.0000 156.0000  6.70625782    14
CTC1_L_00585011-03
1 60755U 23144AX  26037.47809028  .00000000  00000+0  00000-0 0  9992
2 60755  65.0000 300.0000 0000000   0.0000 192.0000  6.70625782    15
CTC1_L_00585011-04
1 60756U 26420DF  26037.47809028  .00000000  00000+0  00000-0 0  9993
2 60756  65.0000 300.0000 0000000   0.0000 228.0000  6.70625782    16
CTC1_L_00585011-05
1 60757U 24217EW  26037.47809028  .00000000  00000+0  00000-0 0  9996
2 60757  65.0000 300.0000 0000000   0.0000 264.0000  6.70625782    17
CTC1_L_00585011-06
1 60758U 23379CL  26037.47809028  .00000000  00000+0  00000-0 0  9995
2 60758  65.0000 300.0000 0000000   0.0000 300.0000  6.70625782    19
CTC1_L_00585011-07
1 60759U 26409AF  26037.47809028  .00000000  00000+0  00000-0 0  9993
2 60759  65.0000 300.0000 0000000   0.0000 336.0000  6.70625782    19
CTC1_L_00585011-08
1 60760U 22508FS  26037.47809028  .00000000  00000+0  00000-0 0  9991
2 60760  65.0000 300.0000 0000000   0.0000  12.0000  6.70625782    12
CTC1_L_00585011-09
1 60761U 22905DJ  26037.47809028  .00000000  00000+0  00000-0 0  9993
2 60761  65.0000 300.0000 0000000   0.0000  48.0000  6.70625782    12
CTC1_L_00585011-10
1 60762U 24429DS  26037.47809028  .00000000  00000+0  00000-0 0  9997
2 60762  65.0000 300.0000 0000000   0.0000  84.0000  6.70625782    13
CTC1_L_00585012-01
1 60763U 25211GR  26037.47809028  .00000000  00000+0  00000-0 0  9998
2 60763  65.0000 330.0000 0000000   0.0000 132.0000  6.70625782    11
CTC1_L_00585012-02
1 60764U 26632GR  26037.47809028  .00000000  00000+0  00000-0 0  9997
2 60764  65.0000 330.0000 0000000   0.0000 168.0000  6.70625782    11
CTC1_L_00585012-03
1 60765U 26577LE  26037.47809028  .00000000  00000+0  00000-0 0  9996
2 60765  65.0000 330.0000 0000000   0.0000 204.0000  6.70625782    13
CTC1_L_00585012-04
1 60766U 23317WF  26037.47809028  .00000000  00000+0  00000-0 0  9996
2 60766  65.0000 330.0000 0000000   0.0000 240.0000  6.70625782    14
CTC1_L_00585012-05
1 60767U 22412DQ  26037.47809028  .00000000  00000+0  00000-0 0  9992
2 60767  65.0000 330.0000 0000000   0.0000 276.0000  6.70625782    14
CTC1_L_00585012-06
1 60768U 22854QM  26037.47809028  .00000000  00000+0  00000-0 0  9993
2 60768  65.0000 330.0000 0000000   0.0000 312.0000  6.70625782    16
CTC1_L_00585012-07
1 60769U 22584NP  26037.47809028  .00000000  00000+0  00000-0 0  9994
2 60769  65.0000 330.0000 0000000   0.0000 348.0000  6.70625782    16
CTC1_L_00585012-08
1 60770U 22245EC  26037.47809028  .00000000  00000+0  00000-0 0  9990
2 60770  65.0000 330.0000 0000000   0.0000  24.0000  6.70625782    19
CTC1_L_00585012-09
1 60771U 24993NK  26037.47809028  .00000000  00000+0  00000-0 0  9993
2 60771  65.0000 330.0000 0000000   0.0000  60.0000  6.70625782    10
CTC1_L_00585012-10
1 60772U 22241SL  26037.47809028  .00000000  00000+0  00000-0 0  9998
2 60772  65.0000 330.0000 0000000   0.0000  96.0000  6.70625782    10
